NORAD_CAT_ID,OBJECT_NAME,OBJECT_TYPE,EPOCH,MEAN_MOTION,ECCENTRICITY,INCLINATION,RA_OF_ASC_NODE,ARG_OF_PERICENTER,MEAN_ANOMALY,BSTAR,MEAN_MOTION_DOT,MEAN_MOTION_DDOT,TLE_LINE0,TLE_LINE1,TLE_LINE2,SEMIMAJOR_AXIS,PERIOD,APOGEE,PERIGEE,DECAYED
55303.0,STARLINK-5322,PAYLOAD,2024-01-22 21:21:32,14.98325827,0.0002318,70.0,202.8451,277.8717,82.2179,0.00034085,3.976e-05,0.0,0 STARLINK-5322,1 55303U 23010AL  24022.88996374  .00003976  00000-0  34085-3 0  9994,2 55303  70.0000 202.8451 0002318 277.8717  82.2179 14.98325827 56425,6950.206,96.107,573.682,570.46,0.0
55303.0,STARLINK-5322,PAYLOAD,2024-01-23 16:35:08,14.98347294,0.0002309,70.0,200.8248,279.3349,80.7549,0.00016489,1.876e-05,0.0,0 STARLINK-5322,1 55303U 23010AL  24023.69107284  .00001876  00000-0  16489-3 0  9993,2 55303  70.0000 200.8248 0002309 279.3349  80.7549 14.98347294 56241,6950.139,96.106,573.609,570.4,0.0
55303.0,STARLINK-5322,PAYLOAD,2024-01-23 21:23:32,14.98348217,0.000229,70.0001,200.3202,279.2148,80.8752,0.00016562,1.885e-05,0.0,0 STARLINK-5322,1 55303U 23010AL  24023.89134950  .00001885  00000-0  16562-3 0  9997,2 55303  70.0001 200.3202 0002290 279.2148  80.8752 14.98348217 56571,6950.137,96.106,573.593,570.41,0.0
55303.0,STARLINK-5322,PAYLOAD,2024-01-24 11:48:45,14.98340057,0.0001972,70.0009,198.8073,271.0364,89.0569,3.1e-05,2.77e-06,0.0,0 STARLINK-5322,1 55303U 23010AL  24024.49219359  .00000277  00000-0  31000-4 0  9990,2 55303  70.0009 198.8073 0001972 271.0364  89.0569 14.98340057 56360,6950.162,96.106,573.397,570.656,0.0
55303.0,STARLINK-5322,PAYLOAD,2024-01-24 15:01:01,14.98338544,0.0002036,70.0008,198.4711,272.8198,87.2728,7.6112e-06,-2e-08,0.0,0 STARLINK-5322,1 55303U 23010AL  24024.62571430 -.00000002  00000-0  76112-5 0  9997,2 55303  70.0008 198.4711 0002036 272.8198  87.2728 14.98338544 56680,6950.166,96.106,573.447,570.616,0.0
55303.0,STARLINK-5322,PAYLOAD,2024-01-24 21:25:34,14.98336284,0.0002134,70.0006,197.7972,276.7655,83.3261,-2.8303e-05,-4.31e-06,0.0,0 STARLINK-5322,1 55303U 23010AL  24024.89275468 -.00000431  00000-0 -28303-4 0  9993,2 55303  70.0006 197.7972 0002134 276.7655  83.3261 14.98336284 56722,6950.173,96.107,573.522,570.555,0.0
55303.0,STARLINK-5322,PAYLOAD,2024-01-25 11:50:46,14.98340149,0.0002051,70.0008,196.2829,277.1669,82.9257,-4.8124e-05,-6.67e-06,0.0,0 STARLINK-5322,1 55303U 23010AL  24025.49358951 -.00000667  00000-0 -48124-4 0  9993,2 55303  70.0008 196.2829 0002051 277.1669  82.9257 14.98340149 56519,6950.162,96.106,573.452,570.601,0.0
55303.0,STARLINK-5322,PAYLOAD,2024-01-25 13:26:54,14.98340302,0.0002039,70.0008,196.1137,273.2073,86.8853,-5.5365e-05,-7.54e-06,0.0,0 STARLINK-5322,1 55303U 23010AL  24025.56034862 -.00000754  00000-0 -55365-4 0  9995,2 55303  70.0008 196.1137 0002039 273.2073  86.8853 14.98340302 56822,6950.161,96.106,573.443,570.609,0.0
55303.0,STARLINK-5322,PAYLOAD,2024-01-25 21:27:34,14.98337212,0.0002151,70.0006,195.2717,276.239,83.8524,-9.1561e-05,-1.185e-05,0.0,0 STARLINK-5322,1 55303U 23010AL  24025.89414944 -.00001185  00000-0 -91561-4 0  9991,2 55303  70.0006 195.2717 0002151 276.2390  83.8524 14.98337212 56877,6950.171,96.107,573.531,570.541,0.0
55303.0,STARLINK-5322,PAYLOAD,2024-01-26 11:52:47,14.98329215,0.0002223,70.0004,193.7564,271.0254,89.065,2.1491e-05,1.64e-06,0.0,0 STARLINK-5322,1 55303U 23010AL  24026.49499005  .00000164  00000-0  21491-4 0  9998,2 55303  70.0004 193.7564 0002223 271.0254  89.0650 14.98329215 56669,6950.195,96.107,573.605,570.515,0.0
55303.0,STARLINK-5322,PAYLOAD,2024-01-26 13:28:55,14.98328702,0.0002232,70.0003,193.5882,269.7456,90.3448,1.2406e-05,5.5e-07,0.0,0 STARLINK-5322,1 55303U 23010AL  24026.56175041  .00000055  00000-0  12406-4 0  9992,2 55303  70.0003 193.5882 0002232 269.7456  90.3448 14.98328702 56971,6950.197,96.107,573.613,570.511,0.0
55303.0,STARLINK-5322,PAYLOAD,2024-01-27 13:30:55,14.98333631,0.0002513,70.0003,191.0636,278.4059,81.6815,5.2002e-05,5.28e-06,0.0,0 STARLINK-5322,1 55303U 23010AL  24027.56314656  .00000528  00000-0  52002-4 0  9991,2 55303  70.0003 191.0636 0002513 278.4059  81.6815 14.98333631 56821,6950.182,96.107,573.793,570.3,0.0
55303.0,STARLINK-5322,PAYLOAD,2024-01-27 19:55:27,14.98337215,0.0002515,70.0003,190.3906,276.8201,83.2672,8.6506e-05,9.4e-06,0.0,0 STARLINK-5322,1 55303U 23010AL  24027.83018268  .00000940  00000-0  86506-4 0  9995,2 55303  70.0003 190.3906 0002515 276.8201  83.2672 14.98337215 57165,6950.171,96.107,573.784,570.288,0.0
55303.0,STARLINK-5322,PAYLOAD,2024-01-28 11:56:49,14.98326997,0.0002572,70.0003,188.7074,277.9023,82.1844,7.0881e-06,-8e-08,0.0,0 STARLINK-5322,1 55303U 23010AL  24028.49779071 -.00000008  00000-0  70881-5 0  9990,2 55303  70.0003 188.7074 0002572 277.9023  82.1844 14.98326997 56960,6950.202,96.107,573.855,570.28,0.0
55303.0,STARLINK-5322,PAYLOAD,2024-01-28 13:32:57,14.98326655,0.0002576,70.0003,188.5392,277.6905,82.3961,1.7542e-06,-7.2e-07,0.0,0 STARLINK-5322,1 55303U 23010AL  24028.56455112 -.00000072  00000-0  17542-5 0  9991,2 55303  70.0003 188.5392 0002576 277.6905  82.3961 14.98326655 57279,6950.203,96.107,573.859,570.278,0.0
55303.0,STARLINK-5322,PAYLOAD,2024-01-28 19:57:29,14.98327955,0.0002532,70.0003,187.8656,275.6793,84.4077,1.7167e-05,1.12e-06,0.0,0 STARLINK-5322,1 55303U 23010AL  24028.83159012  .00000112  00000-0  17167-4 0  9997,2 55303  70.0003 187.8656 0002532 275.6793  84.4077 14.98327955 57319,6950.199,96.107,573.824,570.304,0.0
55303.0,STARLINK-5322,PAYLOAD,2024-01-29 11:58:49,14.98335389,0.0002587,70.0001,186.182,274.6272,85.4591,7.3329e-07,-8.4e-07,0.0,0 STARLINK-5322,1 55303U 23010AL  24029.49918550 -.00000084  00000-0  73329-6 0  9993,2 55303  70.0001 186.1820 0002587 274.6272  85.4591 14.98335389 57113,6950.176,96.107,573.839,570.243,0.0
55303.0,STARLINK-5322,PAYLOAD,2024-01-29 19:59:29,14.98337881,0.0002553,70.0002,185.3403,274.1688,85.9179,3.437e-05,3.17e-06,0.0,0 STARLINK-5322,1 55303U 23010AL  24029.83298178  .00000317  00000-0  34370-4 0  9997,2 55303  70.0002 185.3403 0002553 274.1688  85.9179 14.98337881 57465,6950.169,96.106,573.808,570.259,0.0
55303.0,STARLINK-5322,PAYLOAD,2024-01-30 12:00:50,14.98326627,0.0002462,70.0003,183.6557,273.7183,86.3695,3.8021e-05,3.61e-06,0.0,0 STARLINK-5322,1 55303U 23010AL  24030.50058817  .00000361  00000-0  38021-4 0  9993,2 55303  70.0003 183.6557 0002462 273.7183  86.3695 14.98326627 57263,6950.203,96.107,573.779,570.357,0.0
55303.0,STARLINK-5322,PAYLOAD,2024-01-30 13:36:58,14.98326245,0.0002473,70.0002,183.4874,273.5992,86.4884,3.2312e-05,2.93e-06,0.0,0 STARLINK-5322,1 55303U 23010AL  24030.56734868  .00000293  00000-0  32312-4 0  9997,2 55303  70.0002 183.4874 0002473 273.5992  86.4884 14.98326245 57571,6950.205,96.107,573.788,570.351,0.0
55303.0,STARLINK-5322,PAYLOAD,2024-01-30 20:01:31,14.98327884,0.0002489,70.0005,182.8148,274.072,86.0155,4.6167e-05,4.58e-06,0.0,0 STARLINK-5322,1 55303U 23010AL  24030.83438788  .00000458  00000-0  46167-4 0  9995,2 55303  70.0005 182.8148 0002489 274.0720  86.0155 14.98327884 57615,6950.199,96.107,573.794,570.335,0.0
55303.0,STARLINK-5322,PAYLOAD,2024-01-31 12:02:51,14.98331135,0.0002506,70.0007,181.1322,269.2217,90.8655,-4.9171e-05,-6.8e-06,0.0,0 STARLINK-5322,1 55303U 23010AL  24031.50198839 -.00000680  00000-0 -49171-4 0  9997,2 55303  70.0007 181.1322 0002506 269.2217  90.8655 14.98331135 57410,6950.189,96.107,573.796,570.313,0.0
55303.0,STARLINK-5322,PAYLOAD,2024-02-01 12:04:52,14.98329514,0.0002377,70.0014,178.6085,264.0639,96.0249,7.5549e-05,8.09e-06,0.0,0 STARLINK-5322,1 55303U 23010AL  24032.50338530  .00000809  00000-0  75549-4 0  9991,2 55303  70.0014 178.6085 0002377 264.0639  96.0249 14.98329514 57563,6950.194,96.107,573.711,570.407,0.0
55303.0,STARLINK-5322,PAYLOAD,2024-02-01 20:05:32,14.98331252,0.000242,70.0013,177.7665,267.3979,92.6903,8.387e-05,9.08e-06,0.0,0 STARLINK-5322,1 55303U 23010AL  24032.83718424  .00000908  00000-0  83870-4 0  9997,2 55303  70.0013 177.7665 0002420 267.3979  92.6903 14.98331252 57918,6950.189,96.107,573.736,570.372,0.0
55303.0,STARLINK-5322,PAYLOAD,2024-02-02 12:06:53,14.98333294,0.0002569,70.0006,176.0826,270.0549,90.0316,6.5188e-05,6.85e-06,0.0,0 STARLINK-5322,1 55303U 23010AL  24033.50478209  .00000685  00000-0  65188-4 0  9990,2 55303  70.0006 176.0826 0002569 270.0549  90.0316 14.98333294 57715,6950.183,96.107,573.833,570.262,0.0
55303.0,STARLINK-5322,PAYLOAD,2024-02-02 13:43:01,14.98333258,0.0002565,70.0008,175.9145,270.4606,89.6259,6.4638e-05,6.78e-06,0.0,0 STARLINK-5322,1 55303U 23010AL  24033.57154209  .00000678  00000-0  64638-4 0  9999,2 55303  70.0008 175.9145 0002565 270.4606  89.6259 14.98333258 58028,6950.183,96.107,573.831,570.265,0.0
55303.0,STARLINK-5322,PAYLOAD,2024-02-02 18:31:25,14.98332205,0.0002599,70.0011,175.4101,271.8868,88.1993,5.2618e-05,5.35e-06,0.0,0 STARLINK-5322,1 55303U 23010AL  24033.77182290  .00000535  00000-0  52618-4 0  9999,2 55303  70.0011 175.4101 0002599 271.8868  88.1993 14.98332205 58054,6950.186,96.107,573.857,570.245,0.0
55303.0,STARLINK-5322,PAYLOAD,2024-02-03 13:45:02,14.98329102,0.0002649,70.0012,173.3909,268.9843,91.1013,-5.8345e-05,-7.89e-06,0.0,0 STARLINK-5322,1 55303U 23010AL  24034.57294684 -.00000789  00000-0 -58345-4 0  9995,2 55303  70.0012 173.3909 0002649 268.9843  91.1013 14.98329102 58176,6950.196,96.107,573.902,570.22,0.0
55303.0,STARLINK-5322,PAYLOAD,2024-02-03 18:33:26,14.98329233,0.000266,70.0011,172.8858,269.1874,90.898,-5.5047e-05,-7.5e-06,0.0,0 STARLINK-5322,1 55303U 23010AL  24034.77322665 -.00000750  00000-0 -55047-4 0  9992,2 55303  70.0011 172.8858 0002660 269.1874  90.8980 14.98329233 57906,6950.195,96.107,573.909,570.212,0.0
55303.0,STARLINK-5322,PAYLOAD,2024-02-04 13:47:03,14.98328953,0.0002803,70.001,170.8658,271.7724,88.3114,-1.8897e-05,-3.18e-06,0.0,0 STARLINK-5322,1 55303U 23010AL  24035.57434642 -.00000318  00000-0 -18897-4 0  9992,2 55303  70.0010 170.8658 0002803 271.7724  88.3114 14.98328953 58329,6950.196,96.107,574.009,570.113,0.0
